[{"OBJECT_NAME":"VSP RF C1","OBJECT_ID":"2024-043AQ","EPOCH":"2026-03-09T21:56:05.358624","MEAN_MOTION":15.29409663,"ECCENTRICITY":0.00093965,"INCLINATION":97.5441,"RA_OF_ASC_NODE":205.1792,"ARG_OF_PERICENTER":219.6172,"MEAN_ANOMALY":140.4382,"EPHEMERIS_TYPE":0,"CLASSIFICATION_TYPE":"U","NORAD_CAT_ID":59136,"ELEMENT_SET_NO":999,"REV_AT_EPOCH":11190,"BSTAR":0.00026222052,"MEAN_MOTION_DOT":7.409e-5,"MEAN_MOTION_DDOT":0},{"OBJECT_NAME":"STARLINK-31656","OBJECT_ID":"2024-132J","EPOCH":"2026-03-09T22:50:01.918176","MEAN_MOTION":15.30171016,"ECCENTRICITY":0.00011503,"INCLINATION":53.1601,"RA_OF_ASC_NODE":50.9923,"ARG_OF_PERICENTER":79.4511,"MEAN_ANOMALY":280.6619,"EPHEMERIS_TYPE":0,"CLASSIFICATION_TYPE":"U","NORAD_CAT_ID":60286,"ELEMENT_SET_NO":999,"REV_AT_EPOCH":9160,"BSTAR":-5.4772808e-5,"MEAN_MOTION_DOT":-1.979e-5,"MEAN_MOTION_DDOT":0}]
